NORAD_CAT_ID,OBJECT_NAME,OBJECT_TYPE,EPOCH,MEAN_MOTION,ECCENTRICITY,INCLINATION,RA_OF_ASC_NODE,ARG_OF_PERICENTER,MEAN_ANOMALY,BSTAR,MEAN_MOTION_DOT,MEAN_MOTION_DDOT,TLE_LINE0,TLE_LINE1,TLE_LINE2,SEMIMAJOR_AXIS,PERIOD,APOGEE,PERIGEE,DECAYED
53038.0,STARLINK-4156,PAYLOAD,2022-08-14 22:00:00,15.73213911,0.000198,53.2185,189.6618,20.6032,181.3655,4.2008e-05,5.282e-05,0.0,0 STARLINK-4156,1 53038U 22076BE  22226.91667824  .00005282  00000-0  42008-4 0  9998,2 53038  53.2185 189.6618 0001980  20.6032 181.3655 15.73213911  1301,6727.856,91.532,351.05300000000005,348.38800000000015,0.0
53038.0,STARLINK-4156,PAYLOAD,2022-08-15 06:00:00,15.731650899999998,0.0002282,53.2182,188.0144,17.2075,273.7083,0.00017085,0.00023389,0.0,0 STARLINK-4156,1 53038U 22076BE  22227.25001157  .00023389  00000-0  17085-3 0  9991,2 53038  53.2182 188.0144 0002282  17.2075 273.7083 15.73165090  6579,6727.995,91.535,351.395,348.324,0.0
53038.0,STARLINK-4156,PAYLOAD,2022-08-15 14:00:01,15.73179828,0.0002128,53.2181,186.3639,18.6039,1.2009999999999998,-0.00043414,-0.00061063,0.0,0 STARLINK-4156,1 53038U 22076BE  22227.58334491 -.00061063  00000-0 -43414-3 0  9995,2 53038  53.2181 186.3639 0002128  18.6039   1.2010 15.73179828  1306,6727.953,91.534,351.249,348.386,0.0
53038.0,STARLINK-4156,PAYLOAD,2022-08-15 16:00:00,15.73134895,0.0002070999999999,53.2183,185.951,19.2825,112.7584,0.00018986,0.00026035,0.0,0 STARLINK-4156,1 53038U 22076BE  22227.66667824  .00026035  00000-0  18986-3 0  9997,2 53038  53.2183 185.9510 0002071  19.2825 112.7584 15.73134895  6649,6728.081,91.537,351.339,348.552,0.0
53038.0,STARLINK-4156,PAYLOAD,2022-08-15 22:00:00,15.73154048,0.0002075,53.2185,184.7138,25.4746,83.2049,0.0003345,0.00046494,0.0,0 STARLINK-4156,1 53038U 22076BE  22227.91667824  .00046494  00000-0  33450-3 0  9999,2 53038  53.2185 184.7138 0002075  25.4746  83.2049 15.73154048  1307,6728.026,91.536,351.287,348.495,0.0
53038.0,STARLINK-4156,PAYLOAD,2022-08-16 14:00:01,15.73227048,0.0002203,53.2183,181.4158,24.5672,261.9308,0.00014955,0.00020444,0.0,0 STARLINK-4156,1 53038U 22076BE  22228.58334491  .00020444  00000-0  14955-3 0  9990,2 53038  53.2183 181.4158 0002203  24.5672 261.9308 15.73227048  1306,6727.818,91.532,351.165,348.201,0.0
53038.0,STARLINK-4156,PAYLOAD,2022-08-16 22:00:00,15.73287353,0.0002163,53.2183,179.7661,28.2452,347.2048,-0.00056724,-0.00079785,0.0,0 STARLINK-4156,1 53038U 22076BE  22228.91667824 -.00079785  00000-0 -56724-3 0  9990,2 53038  53.2183 179.7661 0002163  28.2452 347.2048 15.73287353  1301,6727.646,91.528,350.966,348.056,0.0
53038.0,STARLINK-4156,PAYLOAD,2022-08-17 06:00:02,15.73190026,0.0002368,53.2176,178.1153,25.8218,78.7058,-3.6653e-05,-5.761e-05,0.0,0 STARLINK-4156,1 53038U 22076BE  22229.25002315 -.00005761  00000-0 -36653-4 0  9999,2 53038  53.2176 178.1153 0002368  25.8218  78.7058 15.73190026  6898,6727.924,91.534,351.38199999999995,348.195,0.0
53038.0,STARLINK-4156,PAYLOAD,2022-08-17 14:00:01,15.73189918,0.0002154,53.2177,176.4675,26.1952,167.1659,0.00015709,0.00021474,0.0,0 STARLINK-4156,1 53038U 22076BE  22229.58334491  .00021474  00000-0  15709-3 0  9993,2 53038  53.2177 176.4675 0002154  26.1952 167.1659 15.73189918  1300,6727.924,91.534,351.23800000000006,348.34,0.0
53038.0,STARLINK-4156,PAYLOAD,2022-08-17 16:00:00,15.73168071,0.0002083,53.2176,176.0547,27.2113,278.3851,0.00054309,0.00076192,0.0,0 STARLINK-4156,1 53038U 22076BE  22229.66667824  .00076192  00000-0  54309-3 0  9997,2 53038  53.2176 176.0547 0002083  27.2113 278.3851 15.73168071  6957,6727.986,91.535,351.25300000000016,348.45,0.0
53038.0,STARLINK-4156,PAYLOAD,2022-08-18 08:00:01,15.73199486,0.0002188,53.2175,172.7577,20.4152,103.1074,0.00070711,0.00099807,0.0,0 STARLINK-4156,1 53038U 22076BE  22230.33334491  .00099807  00000-0  70711-3 0  9997,2 53038  53.2175 172.7577 0002188  20.4152 103.1074 15.73199486  7065,6727.897,91.533,351.2340000000001,348.29,0.0
53038.0,STARLINK-4156,PAYLOAD,2022-08-18 14:00:01,15.73265027,0.0001996,53.2177,171.519,19.3893,80.842,-0.00021866,-0.00031283,0.0,0 STARLINK-4156,1 53038U 22076BE  22230.58334491 -.00031283  00000-0 -21866-3 0  9997,2 53038  53.2177 171.5190 0001996  19.3893  80.8420 15.73265027  1302,6727.71,91.529,350.918,348.232,0.0
53038.0,STARLINK-4156,PAYLOAD,2022-08-18 22:00:00,15.73245297,0.0001899999999999,53.2176,169.8696,20.4101,168.8144,3.2848000000000007e-06,-1.59e-06,0.0,0 STARLINK-4156,1 53038U 22076BE  22230.91667824 -.00000159  00000-0  32848-5 0  9994,2 53038  53.2176 169.8696 0001900  20.4101 168.8144 15.73245297  1309,6727.766,91.531,350.909,348.353,0.0
53038.0,STARLINK-4156,PAYLOAD,2022-08-19 14:00:01,15.73147431,0.0001875999999999,53.217,166.5704,19.78,347.3830000000001,-0.00044936,-0.00063077,0.0,0 STARLINK-4156,1 53038U 22076BE  22231.58334491 -.00063077  00000-0 -44936-3 0  9997,2 53038  53.2170 166.5704 0001876  19.7800 347.3830 15.73147431  1303,6728.045,91.536,351.172,348.648,0.0
53038.0,STARLINK-4156,PAYLOAD,2022-08-19 16:00:00,15.730908,0.0001853,53.2168,166.1577,19.4147,99.9688,0.00018774,0.00025687,0.0,0 STARLINK-4156,1 53038U 22076BE  22231.66667824  .00025687  00000-0  18774-3 0  9999,2 53038  53.2168 166.1577 0001853  19.4147  99.9688 15.73090800  7270,6728.206999999999,91.54,351.3180000000001,348.825,0.0
53038.0,STARLINK-4156,PAYLOAD,2022-08-19 22:00:00,15.73114221,0.0001939,53.2172,164.9213,25.0909,70.8911,0.00018537,0.00025379,0.0,0 STARLINK-4156,1 53038U 22076BE  22231.91667824  .00025379  00000-0  18537-3 0  9992,2 53038  53.2172 164.9213 0001939  25.0909  70.8911 15.73114221  1301,6728.14,91.538,351.309,348.7,0.0
53038.0,STARLINK-4156,PAYLOAD,2022-08-20 14:00:01,15.73153965,0.0001989,53.2173,161.6226,23.6459,250.0278,0.00040894,0.00057051,0.0,0 STARLINK-4156,1 53038U 22076BE  22232.58334491  .00057051  00000-0  40894-3 0  9990,2 53038  53.2173 161.6226 0001989  23.6459 250.0278 15.73153965  1305,6728.026,91.536,351.23,348.55300000000005,0.0
53038.0,STARLINK-4156,PAYLOAD,2022-08-20 22:00:00,15.73226414,0.000197,53.2172,159.9737,25.2041,337.3723,0.00013532,0.00018434,0.0,0 STARLINK-4156,1 53038U 22076BE  22232.91667824  .00018434  00000-0  13532-3 0  9997,2 53038  53.2172 159.9737 0001970  25.2041 337.3723 15.73226414  1300,6727.82,91.532,351.01,348.3590000000001,0.0
53038.0,STARLINK-4156,PAYLOAD,2022-08-21 06:00:00,15.73218444,0.0002158,53.2167,158.3258,20.746,70.763,-8.256700000000001e-05,-0.00012203,0.0,0 STARLINK-4156,1 53038U 22076BE  22233.25001157 -.00012203  00000-0 -82567-4 0  9991,2 53038  53.2167 158.3258 0002158  20.7460  70.7630 15.73218444  7528,6727.843000000003,91.532,351.159,348.256,0.0
53038.0,STARLINK-4156,PAYLOAD,2022-08-21 14:00:01,15.73172554,0.0001848,53.2168,156.6742,18.1441,162.3242,0.00044343,0.00062001,0.0,0 STARLINK-4156,1 53038U 22076BE  22233.58334491  .00062001  00000-0  44343-3 0  9995,2 53038  53.2168 156.6742 0001848  18.1441 162.3242 15.73172554  1301,6727.973000000001,91.535,351.082,348.595,0.0
53038.0,STARLINK-4156,PAYLOAD,2022-08-21 22:00:00,15.73230644,0.0001879,53.2171,155.0254,21.5865,247.7947,7.467199999999999e-05,9.885e-05,0.0,0 STARLINK-4156,1 53038U 22076BE  22233.91667824  .00009885  00000-0  74672-4 0  9991,2 53038  53.2171 155.0254 0001879  21.5865 247.7947 15.73230644  1303,6727.808000000001,91.531,350.93699999999984,348.409,0.0
53038.0,STARLINK-4156,PAYLOAD,2022-08-22 06:00:00,15.73246968,0.0002163,53.217,153.3774,19.5357,338.8119999999999,7.965600000000002e-07,-5.1e-06,0.0,0 STARLINK-4156,1 53038U 22076BE  22234.25001157 -.00000510  00000-0  79656-6 0  9996,2 53038  53.2170 153.3774 0002163  19.5357 338.8120 15.73246968  7688,6727.761,91.53,351.081,348.171,0.0
53038.0,STARLINK-4156,PAYLOAD,2022-08-22 12:00:00,15.73228672,0.0002005999999999,53.2174,152.1386,25.1929,309.8999,-0.00011476,-0.00016716,0.0,0 STARLINK-4156,1 53038U 22076BE  22234.50001157 -.00016716  00000-0 -11476-3 0  9993,2 53038  53.2174 152.1386 0002006  25.1929 309.8999 15.73228672  1309,6727.813,91.532,351.028,348.329,0.0
53038.0,STARLINK-4156,PAYLOAD,2022-08-22 22:00:00,15.73253678,0.0002020999999999,53.2173,150.0772,25.1049,151.1701,-0.0006887,-0.00096405,0.0,0 STARLINK-4156,1 53038U 22076BE  22234.91667824 -.00096405  00000-0 -68870-3 0  9990,2 53038  53.2173 150.0772 0002021  25.1049 151.1701 15.73253678  7785,6727.7419999999975,91.53,350.967,348.247,0.0
53038.0,STARLINK-4156,PAYLOAD,2022-08-23 06:00:00,15.73170898,0.0002145999999999,53.2167,148.429,20.2829,244.946,0.00051115,0.00071644,0.0,0 STARLINK-4156,1 53038U 22076BE  22235.25001157  .00071644  00000-0  51115-3 0  9999,2 53038  53.2167 148.4290 0002146  20.2829 244.9460 15.73170898  7835,6727.978,91.535,351.287,348.399,0.0
53038.0,STARLINK-4156,PAYLOAD,2022-08-23 14:00:01,15.73185104,0.0001835,53.2169,146.7774,22.7794,331.4473,0.00051825,0.000727,0.0,0 STARLINK-4156,1 53038U 22076BE  22235.58334491  .00072700  00000-0  51825-3 0  9997,2 53038  53.2169 146.7774 0001835  22.7794 331.4473 15.73185104  1305,6727.938,91.534,351.037,348.5680000000001,0.0
53038.0,STARLINK-4156,PAYLOAD,2022-08-23 22:00:01,15.73291278,0.0001973,53.2172,145.1224,24.9288,58.2971,-0.00094495,-0.00131709,0.0,0 STARLINK-4156,1 53038U 22076BE  22235.91668981 -.00131709  00000-0 -94495-3 0  9995,2 53038  53.2172 145.1224 0001973  24.9288  58.2971 15.73291278  1304,6727.635,91.528,350.827,348.173,0.0
53038.0,STARLINK-4156,PAYLOAD,2022-08-24 06:00:00,15.73171805,0.000206,53.2172,143.4807,15.1507,156.9755,0.00042122,0.00058841,0.0,0 STARLINK-4156,1 53038U 22076BE  22236.25001157  .00058841  00000-0  42122-3 0  9992,2 53038  53.2172 143.4807 0002060  15.1507 156.9755 15.73171805  7996,6727.976,91.535,351.227,348.455,0.0
53038.0,STARLINK-4156,PAYLOAD,2022-08-24 14:00:01,15.73187124,0.0002029999999999,53.2175,141.8293,30.0727,230.954,0.00052248,0.00073311,0.0,0 STARLINK-4156,1 53038U 22076BE  22236.58334491  .00073311  00000-0  52248-3 0  9997,2 53038  53.2175 141.8293 0002030  30.0727 230.9540 15.73187124  1302,6727.932,91.534,351.163,348.431,0.0
